Postcode,Borough,Neighbourhood,Latitude,Longitude
76000,Queretaro,Centro,20.5954708,-100.3970593
76005,Queretaro,"Rincón de San Andrés, Mariano Escobedo, Vicente Guerrero, Rinconada Morelos",20.5950059198615,-100.398769877602
76010,Queretaro,"Las Campanas, Niños Héroes",20.589144895283300,-100.41002296473700
76017,Queretaro,Centro Universitario (U.A.Q.),20.612119400000000,-100.38508190537500
76020,Queretaro,"San Javier, Pathé, La Cruz, Jardines de Queretaro, Diligencias, Calesa, Bosques del Acueducto, El Cortijo",20.595157966107900,-100.38016381528500
76024,Queretaro,"Conjunto Seminario, Karina, La Peñita, Calesa 2a Sección, El Cortijo, El Oasis, Villa Los Arcos, El Cortijo II, Del Río",20.60100997735220,-100.36921541802100
76025,Queretaro,La Pastora,20.592993539396400,-100.37968649198200
76026,Queretaro,"La Cruz, Goyeneche",20.59720275548600,-100.38681260693200
76027,Queretaro,"San José Inn, Arboledas del Río",20.598872859088900,-100.38627138557900
76028,Queretaro,Universidad,20.598809625449400,-100.38729097959800
76030,Queretaro,"El Prado, Moderna, Las Misiones, Las Fuentes, San Ángel, El Carrizal, Cimatario, Casa Blanca, Estrella",20.580199715813400,-100.39499474461700
76036,Queretaro,Rinconada Fray Juan,20.5812310826573,-100.395779558018
76037,Queretaro,Mariano de las Casas,20.579183291477000,-100.40147663475300
76040,Queretaro,"Andalucía, Alameda, Aragón, Las Palmas, Mercurio, Observatorio, Panamericano, Valle Alameda, Villas del Sur",20.5836065641449,-100.38121384579100
76046,Queretaro,"San Joaquín, Panorámico, El Laurel, Villas del Sol",20.58137553066190,-100.37780120025900
76047,Queretaro,"El Marqués, Quintas del Marqués",20.583838233825500,-100.37005896957700
76048,Queretaro,Arquitos,20.571274236445400,-100.38037183890600
76049,Queretaro,Loma Bonita,20.587390000964300,-100.36729699647800
76050,Queretaro,Carretas,20.591591060423100,-100.37171590613400
76057,Queretaro,Hidalgo,20.58762497516970,-100.38541194888200
76058,Queretaro,San Francisquito,20.588841366989000,-100.38497232951500
76059,Queretaro,Plaza de las Américas,20.5884336061677,-100.374462483523
76060,Queretaro,"Cumbres del Mirador, Loma Dorada, Milenio 3a. Sección",20.5877167173389,-100.3561605698730
76063,Queretaro,"Vista Hermosa, La Virgen, Villas del Oriente, Cuesta Bonita, Pedregal de Vista Hermosa",20.5871882354745,-100.355464996124
76067,Queretaro,La Laguna,20.5985080856951,-100.357027228467
76069,Queretaro,"San José de los Perales, La Cuesta, La Estación, Nuevo Morelos, La Estación 2a. Sección, Bugambilias, Hércules, Tejas, El Limonar, El Bosque, 2 de Abril, Jardines de Hércules, 8 de Diciembre",20.602116433333300,-100.36045506666700
76070,Queretaro,"Conjunto Terranova, El Retiro, Loma Linda, Prados del Mirador, Corregidora (Burocrata), Vista",20.58191375013940,-100.40981643269400
76074,Queretaro,"La Alhambra, Vista Alegre, Vista Alegre 2a Secc, Vista Alegre 3a Sección, Palomar del Duque",20.564053966666700,-100.37687576666700
76078,Queretaro,Villas Valle Alameda,20.5778803579246,-100.384005227224
76079,Queretaro,"Balaustradas, Quinta Balaustradas",20.576460196050500,-100.38223438507200
76080,Queretaro,"Lomas de Casa Blanca, Presidentes",20.56155833349710,-100.39842014856100
76085,Queretaro,"Lomas del Valle, La Unión, Vistas del Cimatario, Bosques del Cimatario, Rincón del Cimatario, Altos del Cimatario, Fraternidad de Santiago, Lázaro Cárdenas III, Universo 2000, Azteca, Arte Mexicano, Colinas del Sur, Lomas del Cimatario, El Marqués Queretano",20.5524302139733,-100.385993351855
76086,Queretaro,"Reforma Agraria 1a Sección, Reforma Agraria 2a Secc, Reforma Agraria 3a Secc, Reforma Agraria 4a Secc, Reforma Agraria 5a Secc",20.548624844864200,-100.40338002905900
76087,Queretaro,"Huertas del Cimatario, Linderos del Cimatario, Prados de Queretaro, Bosques de las Lomas, Pedregal del Cimatario, Raquel Trejo Ortiz, Bellavista, Manantiales del Cimatario, Prados del Cimatario, Monte Blanco II, Monte Blanco III, Misión Cimatario, Jardines del Cimatario, San Andrés, Comerciantes, Lázaro Cárdenas, Lomas de Pasteur, Monte Blanco I, Vista Azul, Villas del Rincón, Constelación, Villas del Cimatario, Zapata Vive, Bosques de Queretaro, Unidad Roma, Cuitlahuac, Praderas del Sol, Campestre Italiana, Bosques del Cimatario 2a. Sección",20.556337751908900,-100.37680045219700
76090,Queretaro,"Centro Sur, Colinas del Cimatario",20.566198072991200,-100.36969338714800
76093,Queretaro,"Claustros de la Corregidora 2, Claustros del Marques, Residencial Ángeles, Claustros del Sur, Claustros de la Corregidora I, Claustros de Santiago, Claustros de la Catedral, Claustros de las Misiones",20.5668553844044,-100.363880580333
76099,Queretaro,"Plazas del Sol 2a Sección, Plazas del Sol 1a Sección, Plazas del Sol 3a Sección",20.575478980874000,-100.37396790153300
76100,Queretaro,"Murano, Las Campanas, Privada de los Portones, Jurica, Jurica Pinar, Gobernantes, Jurica, Valle de Juriquilla, Rinconada Jurica, El Bordo, Hacienda Juriquilla Santa Fe, Bleu Casas Platina, Jurica, Santa Rosa, Vive, Dolce Terra, El Destino, Valle Garden, La Castellana, Atenas",20.678530449465100,-100.4503911313260
76110,Queretaro,"Satélite Sección Andadores, Ampliación Satélite, Satélite Sección Condominios, Josefa Ortiz de Domínguez III, Josefa Ortiz de Domínguez II, Cosmos (Satelite), Satélite, Lomas de Satélite",20.6374037703318,-100.448760311263
76113,Queretaro,"Rancho San Pedro, Valle de San Pedro, El Arcángel, Tonatiuh 3a Sección, Tonatiuh 2a. Sección, Tonatiú, Tonatiuh 4a Sección, Alborada, Plan Santa María, Valle de San Pedro 2a Sección, Los Framboyanes, La Luna, Bosques del Sol, Rinconada del Sol, El Sol Residencial, El Sol, Santa Isabel",20.61465415856190,-100.45389081063700
76114,Queretaro,"Los Castaños, Sendero, Lomas del Carmen, La Huerta, El Rocio II, Don Manuel, Puerta del Sol II, Los Sauces, El Rocio",20.61434017038930,-100.43839577932900
76115,Queretaro,"El Garambullo, Parque Santiago",20.628640622737000,-100.45504244014200
76116,Queretaro,"Ampliación Patria Nueva, Chula Vista I, Che Guevara (Axayacatl), Loma IX, 25 de Diciembre, Geo Villas, Josefa Ortiz de Domínguez IV, Tenochtitlán II, Víctor Iturbe, Rinconada de las Fuentes, Misión de Carrillo II, Chula Vista II, Patria Nueva, Loma Real, Eucaliptos, Lomas de San Ángel, Las Camelinas, Jardines de Azucenas, Prados del Rincón 2a. Sección, La Floresta, Misión de Carrillo, Tenochtitlán, Ciudad del Sol, Los Encinos, Sierra Colorada, Benito Juárez, Cerrito Colorado, Ciudad del Sol Sección Valle de Santiago, Real de la Loma, Puerta Navarra, Ex-Hacienda Santana, Villas de Guadalupe, Teotihuacan, La Loma, Cerrito Colorado 2a Secc, Querena, Claustros de la Loma, Geo Plazas, Vistas del Valle, Rocio Sanz, Bugambilias Residencial, La Peña, Las Azucenas, Puerta del Sol, La Cordillera, Colinas del Poniente",20.6426795287313,-100.47293330197700
76117,Queretaro,"Pedregal de Buenos Aires, Centenario, Francisco Javier Mina, Comevi, Laderas de San Pedro, La Esmeralda, San Marcos I, Jardines del Sol, Fernando de Tapia, Fundadores, Misión Fundadores, Colinas de Santa Cruz 2a Sección, Colinas de Santa Cruz 1a Sección, San Pedro Mártir, Rubén Jaramillo, Desarrollo Familiar, San Marcos, Insurgentes, Prados del Rincón",20.622135727857,-100.461988828161
76118,Queretaro,"Paseos de San Miguel, Eduardo Loarca Castillo, Jardines de Jurica, El Romerillal, Villas de San Miguel, Paraíso, Revolución, San Miguel, Leyes de Reforma, El Tepeyac, Real del Marques Residencial, 5 de Febrero, Rinconada del Cerrito, Luis Donaldo Colosio, Prados de Loma Bonita, 15 de Mayo, Lomas del Pedregal 2a. Sección, Independencia, Libertadores, Loma Bonita 2a. Sección, Francisco Villa I, Hacienda Mompaní, Monte Vesubio, Morelos, Francisco Villa II, Rosendo Salazar, Cerrito Colorado IV, Cerrito Colorado V, Cerrito Colorado VI, Cerrito Colorado VII, Miguel Hidalgo, Loma Bonita, 10 de Abril, Cerrito Colorado III",20.65090621789040,-100.47176618636900
76120,Queretaro,"Benito Juárez, Santiago",20.633258314967800,-100.43223125185400
76121,Queretaro,"Altos de San Pablo, La Esperanza, Puesta del Sol, Felipe Ángeles, Tlanese, Nueva Esperanza, San Pablo III (INFONAVIT), Conquistadores, San Pablo IV (INFONAVIT), Las Américas San Pablo, Las Américas, Movimiento Obrero",20.627043171962500,-100.41321995924900
76125,Queretaro,"San Pablo II FOVISSSTE, Desarrollo San Pablo, San Pablo I FOVISSSTE, Rivera y Tamayo, Punta San Carlos, Latinoamericana, Misión Bucareli Sur, José María Bustamante, Margaritas, Proyección 2000, Desarrollo San Ángel, San Pablo, Valle de San Pablo, La Condesa, Balcones de San Pablo, Jardines de Alborada, Sergio Villaseñor, Lomas de San Pablo, Cipreses, Los Robles, Bellavista, Terrazas de San Pablo, Desarrollo San Pablo I, Desarrollo San Pablo II, San Pablo I, San Pablo II, Nuevo Horizonte",20.632400101751500,-100.41132771738200
76127,Queretaro,"Lomas del Salitre, Palmares, Parque Industrial Jurica, Arco de Piedra, El Salitre, Raquet Club, Cuitláhuac",20.6580855,-100.4267226
76130,Queretaro,"Industrial, Obrera",20.6177705,-100.4043864
76134,Queretaro,"Rancho Bellavista, Santa Mónica, San Sebastián, Ampolletas, El Mirador, El Tintero Dos (Las Margaritas), Plutarco Elías Calles, Solidaridad 90, El Arco, El Tintero, Nuevo Carrillo",20.607897700000000,-100.4396002
76135,Queretaro,"San Antonio de la Punta, 5 de Febrero",20.5964894787664,-100.423290401265
76136,Queretaro,"José María Arteaga, Zona Militar",20.593969471745,-100.434995636573
76137,Queretaro,"La Aurora, Del Valle, San José 2a Sección, El Chamizal, Ferrocarriles Sección Rinconada Santa Anita, Jardines del Valle, Valle Real de San Ángel, La Sierrita, San Antonio del Maurel, Las Flores, Santo Niño, Santa María Magdalena, Fuentes Residencial",20.5966320195516,-100.443297960167
76138,Queretaro,"El Tintero, El Higo, Valle del Mezquital, Rinconada Zimapán, Luis Donaldo Colosio, Villas de Santa Mónica, Santa Mónica 1a Sección, El Progreso, Las Teresas, Felipe Carrillo Puerto, Santa Mónica 2a Secc",20.63576113088510,-100.40436609478700
76139,Queretaro,"La Higuera, Las Josefinas, Carrillo, Los Laureles, San José, Los Tabachines, Manuel Jurado, San Diego",20.6124993909637,-100.424620376422
76140,Queretaro,"Privada Arboledas, Cedros Tilipanes, Cedros Alcatraces, Las Plazas, Parque Queretaro 2000, Arboledas del Parque, San Pedrito Peñuelas, Viveros Residencial, Arboledas, Balcones Coloniales, Villas del Parque, Vista 2000, Colinas del Parque",20.61606782737310,-100.38485218832000
76144,Queretaro,"Rancho San Antonio, Bolaños, El Pedregal de Queretaro, Puerta del Cielo, Balcones del Acueducto",20.614672663991900,-100.37399248459500
76146,Queretaro,"Lomas del Campanario III, Miradores del Marques, Villas Palmira, Residencial el Refugio, Bolaños, La Purísima, Lomas del Campanario II, Altos del Marqués, Paseo San Junípero, La Cima, La Vista Residencial, Lomas del Marqués, El Campanario",20.6337115391021,-100.353464713142
76147,Queretaro,"San Ángel, 12 de Diciembre, Enrique Burgos (La Rinconada), Monarca, Lic. Alfredo Estrada Romero, La Ladera (Menchaca III), Vistana, Rancho Menchaca, Los Arroyitos, Palmas de San José, El Arcángel (La Guayina), Oasis, Generación 2000, Nuevo Menchaca, Colinas de Menchaca 2a Sección, Lomas de San José, Fray Junípero Serra, La Ladera, Los Huertos, Jardines de San José 1a. y 2a. Sección, Ignacio Pérez, Villas de San José, Lomas de Menchaca, Rinconada las Joyas, Antorchista, Jardines de San José 3a. Sección, Pedregal de San José, Epigmenio González (El Oasis), La Tinaja, Valles de San José, Jardines de San José, Privalia Ambienta, Ejido Menchaca (Los Pinos), Las Fuentes, Menchaca I, Cuauhtémoc, Victoria Popular, Rancho Menchaca (Ex-Hacienda Menchaca), Menchaca II, Menchaca III, San José el Alto, Colinas de Menchaca, Constituyentes, Buenos Aires, Cinco Halcones, Independencia, Diana Laura Rojas, Nueva Creación, Real de España, Santa Fe, San Felipe, Libertadores de América, Renacimiento, Ignacio Zaragoza, Mujeres Independientes",20.6434878809772,-100.382256719882
76148,Queretaro,"Nueva Esperanza, Bosques de Buenavista, Bosques de la Hacienda, Jardines de Santiago, El Vergel, Villas Fontana, Eurípides, Rincones del Parque, Ampliación Amalia Solórzano, Los Ciruelos, Paseos del Pedregal, Anexo a la Ecólogia, Nuevo San Pedrito, Paseos de la Cuesta, La Rueca, Valle de San Pedrito Peñuelas, La Ladera, Alameda Residencial, Orion, Jardines de Villas de Santiago, Bosques de Iturbide, Unidad Nacional, Colinas de San Pablo, El Parque, Los Padilla, Cuesta Azul, San Pedrito los Arcos, Puerta de Belén, Peñuelas, Misión Bucareli Norte, Desarrollo Centro Norte, Misión Riviera, El Castaño, El Castaño II, Mallorca, Mirador San Xavier, Lomas de San Pedrito, Amalia Solórzano, Conjunto Belén, San Pedrito Ecológico, Ricardo Flores Magón, San Pedrito Peñuelas I, San Pedrito Peñuelas II, San Pedrito Peñuelas III, San Pedrito Peñuelas IV, Libertad, Lomas de San Pedrito (Sección Portales), Reforma Agraria Radical, Villas de Santiago, Los Sabinos",20.6484464719165,-100.40494042641
76149,Queretaro,"Misión de Concá, Misión San Jerónimo",20.6301736857695,-100.365564444394
76150,Queretaro,"Felipe Ángeles, Sauces, Las Palomas, Asalias, El Fenix, San Roque, Géminis, Tecnológico 2000, Los Vitrales, Villas Tecnológico, San Pablo Tecnológico, Parque Industrial la Montaña, Los Fresnos, San Roque, La Popular, Molinos de la Era, Los Molinos, Bugambilias, Los Alcanfores, La Piedad, La Era, La Florida, La Estación F.F.C.C., Constituyentes FOVISSSTE, Rinconada los Pirules, Rinconada San José",20.60485670424400,-100.39883087973500
76154,Queretaro,El Retablo,20.596408353101500,-100.41260632816200
76155,Queretaro,Viveros de Queretaro,20.605973,-100.3770356
76156,Queretaro,"Constituyentes de 1824, Los Eucaliptos, San Gregorio, Los Alcanfores Sección Norte",20.6032365865841,-100.40554368332
76157,Queretaro,Santa Catarina,20.606859633333300,-100.40113656666700
76158,Queretaro,"Victoria, Real del Parque, Los Faroles, Prados del Tecnológico, Departamental Parques, España, Conjunto Parques, Tecnológico, El Porvenir, Las Peñitas, Las Peñas",20.608512782081100,-100.40035708812100
76159,Queretaro,"Real de San Pablo, 5 de Febrero, Fresnos Condominio 3, Fresnos Condominio 2, Conjunto Queretaro, Fresnos Condominio 4, La Cima, Real Jurica, Rinconada San Joaquín, Los Girasoles, San Pablo, Balcón Campestre",20.6154964806583,-100.415704609234
76160,Queretaro,"Rinconada de los Alamos, Montecarlo, Privada Bugambilias, Residencial Parque del Álamo, Las Hadas, Romy, El Tepetate, Las Brujas, Álamos 1a Sección, El Cerrito, Álamos 3a Sección, Álamos 2a Sección",20.6057320235745,-100.383927423967
76164,Queretaro,"Nacozari, Las Rosas, Primavera",20.60091229130770,-100.39443611057700
76165,Queretaro,"Margaritas, San Sebastián, Guadalupe Victoria (SAHOP), Los Claustros, Los Cedros",20.600800253732500,-100.39014375069600
76166,Queretaro,La Trinidad,20.603716965984500,-100.38821628315200
76168,Queretaro,"Claustros del Parque, Residencial Bosques, Mega Plaza, Lomas de Lindavista, Jacarandas, Industria del Hierro, Las Gemas, Quinta La Laborcilla, Lindavista",20.60606852080920,-100.39301414783700
76169,Queretaro,"Plaza del Parque, Plaza Boulevares, Privada la Laborcilla",20.614491425378600,-100.39066676510600
76170,Queretaro,"Eucaliptos III, La Capilla, Colibrí, La Reja, Eucaliptos I, Eucaliptos II",20.578725836923600,-100.41236664252000
76175,Queretaro,Los Virreyes,20.578698746566,-100.406145897771
76176,Queretaro,Prados de La Capilla,20.580317709522600,-100.40979201423100
76177,Queretaro,"Residencial Parque La Gloria, Residencial Villa Jardín, Residencial laToscana, Hacienda Galindo, Frida Kahlo, Provincia Santa Elena, Demetrio Vallejo, Villas de San Antonio, Residencial Frondoso, La Carambada, Rinconada La Capilla, Modelo, Ejido Modelo, Galindas Residencial, Residencial Gema, Carolina",20.5834081742582,-100.424819041312
76178,Queretaro,"Ensueño, Villa las Arboledas, El Rosario, La Sandia, Residencial los Ángeles",20.58201607392770,-100.41386028849900
76179,Queretaro,"C.E.A., Quinta Alicia, Residencial Italia, Santiago, El Sillar",20.5896914211326,-100.41750405829
76180,Queretaro,"El Jacal, Jardines de la Hacienda, La Granja, Las Plazas, Orquídeas, Magisterial, La Joya, Anáhuac",20.56719179433880,-100.41285347163600
76185,Queretaro,"Mansiones del Valle, Hacienda San Miguel, Claustros del Campestre",20.5639622875,-100.41417523750000
76190,Queretaro,"Rincón de San Antonio, Los Pilares, Del Valle, Club Campestre, Lomas de Queretaro",20.5641278031445,-100.406943562235
76197,Queretaro,Fidel Velázquez Sánchez,20.5711835000883,-100.400995982726
76199,Queretaro,Prados del Campestre,20.5678026944761,-100.409117619709
76210,Queretaro,"Jofrito, La Estacada, La Gotera",20.843917908622,-100.387865480073
76211,Queretaro,Ojo de Agua,20.8802266738265,-100.407443517388
76212,Queretaro,"La Cantera, Charape de los Pelones, La Luz, Guadalupe (La Lagrima), El Rincón de Ojo de Agua, El Raspiño",20.8881499781603,-100.452854317269
76213,Queretaro,"La Palma, La Versolilla, Palo Alto",20.8768537592006,-100.369864351035
76214,Queretaro,La Estancia de Palo Dulce,20.871005953211,-100.484913271386
76215,Queretaro,"Parque Industrial Queretaro, Jofre, San Antonio de Trojes",20.8310922372954,-100.425718984262
76216,Queretaro,Presa de Becerra,20.8498949140066,-100.452590857384
76217,Queretaro,Cañada de la Monja,20.8546816743143,-100.501619824322
76218,Queretaro,Loma del Chino,20.8498205058669,-100.476097273356
76219,Queretaro,La Monja,20.8449219735215,-100.495067489988
76220,Queretaro,"Emiliano Zapata, Las Lajitas, El Pedregal, Los Ángeles, La Cruz, Arboledas, La Loma, Las Flores, Benito Juárez, Parque Industrial Polígono Empresarial, Corregidora, Colinas de Santa Rosa, Lindavista, Santa Lucia, San Francisco, Los Arquitos, Valle Dorado, Lomas del Pedregal, Las Rosas, Continental, Santa Rosa de Jauregui, San Miguelito, Puerto de Aguirre, Montenegro, Francisco Villa",20.7460038649924,-100.447367970704
76221,Queretaro,"La Joya, La Carbonera, Cerro de la Cruz, Charape de la Joya, La Barreta",20.8167910270858,-100.528704546696
76223,Queretaro,"Hacienda Santa Rosa, Ampliación Piano, Los Venados, Corea, Santa Catarina (Asociación de Colonos), San Isidro Buenavista, Pinto, Pintillo, Santa Catarina",20.7826905904639,-100.44075933229
76224,Queretaro,"Pie de Gallo, El Madroño, Llano de La Rochera, El Herrero, San Isidro Viejo, Estancia de la Rochera, El Paraíso, Cerro Colorado (El Colorado), Los Jiménez, Presita de San Antonio, La Puerta de Santiaguillo, Casa Blanca",20.7580082462926,-100.511518204206
76225,Queretaro,Buenavista,20.825487697738,-100.471039397482
76226,Queretaro,"Real de Juriquilla, Loma Juriquilla, Cuadrilla Juriquilla, Rincón del Lago, Juriquilla, Jurica Misiones, Campestre Ecológico la Rica, Real de Juriquilla Prados, Acequia Blanca, Grand Preserve, Lomas de San Isidro, Villas del Mesón, San José Buenavista, Lomas de Juriquilla, San Isidro, Campestre Juriquilla",20.7192623536284,-100.462559499162
76227,Queretaro,"La Purísima, El Transito, El Patol, Los Muertos, Cerro Prieto, Quintín Lozada",20.7268124046105,-100.557561743626
76228,Queretaro,"La Tinaja de La Estancia, San Isidro El Alto",20.7113365660682,-100.551816052489
76229,Queretaro,"Mompaní, San Francisco de la Palma, Mesita de Mompani, Puertas de San Miguel, El Puertecito, Santa María del Zapote, El Nabo, Tlacote El Alto, El Pie, Tlacote el Bajo",20.6769377049252,-100.520799285091
76230,Queretaro,"Juriquilla Santa Fe, Caletto, Independencia, Azteca, Nuevo Juriquilla, Jurica Acueducto, Los Naranjos, Paraíso Diamante, Nuevo Paraíso, Mayoral 1 y 2, La Solana, Altavista Juriquilla, Rancho Largo, Juriquilla Privada, San Francisco Juriquilla, Jurica Tolimán, La Cañada Juriquilla, Balcones de Juriquilla, Cumbres del Lago, Rinconada Santini, Hacienda Grande, Colinas de Juriquilla, Punta Juriquilla, Jurica La Solana, Paseo del Piropo",20.605944,-100.4916155
76233,Queretaro,"El Huizachal de las Tetillas, Las Mariposas, Santa Rosa de Jauregui, Las Paulonias Campestre",20.7252426117409,-100.41339745269
76234,Queretaro,Santo Niño de Praga,20.6685,-100.5117
76235,Queretaro,"Los Viñedos, El Rincón, Tres Cantos Residencial, Sonterra, Campestre Huertas la Joya, Santa María de los Reyes, Puerta Verona",20.6195601844407,-100.491989791361
76237,Queretaro,"San Pedrito el Alto (El Obraje), CERESO del Estado, Altozano el Nuevo Queretaro, Nuevo Refugio",20.67806196562480,-100.38697958504600
76238,Queretaro,"Las Águilas, Prados de Miranda, Santa Juanita Miranda, Nuevo Horizonte",20.5524817559101,-100.360034076248